[
    {
        "Altitude(m)": 707013.0602174946,
        "Argument of Periapsis(deg)": 0.009112096949301655,
        "Eccentricity": 0.0,
        "Inclination(deg)": 45.0,
        "Latitude(deg)": -16.514603446799484,
        "Longitude(deg)": 177.2355753602857,
        "Mean Anomaly(deg)": -23.500726682015383,
        "RAAN(deg)": 294.99139844683344,
        "Satellite Name": "Constellation 1 1318",
        "Satellite Number": 1318,
        "Semi-Major Axis(m)": 7083131.272910544,
        "Time(s)": 152
    },
    {
        "Altitude(m)": 707000.7992802077,
        "Argument of Periapsis(deg)": 0.009172044955547059,
        "Eccentricity": 0.0,
        "Inclination(deg)": 45.0,
        "Latitude(deg)": -16.473370698009305,
        "Longitude(deg)": 177.27801816764622,
        "Mean Anomaly(deg)": -23.440025541765447,
        "RAAN(deg)": 294.99134185766786,
        "Satellite Name": "Constellation 1 1318",
        "Satellite Number": 1318,
        "Semi-Major Axis(m)": 7083131.272910544,
        "Time(s)": 153
    },
    {
        "Altitude(m)": 706988.5499859903,
        "Argument of Periapsis(deg)": 0.009231992961792466,
        "Eccentricity": 0.0,
        "Inclination(deg)": 45.0,
        "Latitude(deg)": -16.432127351054277,
        "Longitude(deg)": 177.32044140556863,
        "Mean Anomaly(deg)": -23.379324401515557,
        "RAAN(deg)": 294.99128526850234,
        "Satellite Name": "Constellation 1 1318",
        "Satellite Number": 1318,
        "Semi-Major Axis(m)": 7083131.272910544,
        "Time(s)": 154
    },
    {
        "Altitude(m)": 706976.3123727828,
        "Argument of Periapsis(deg)": 0.009291940968037872,
        "Eccentricity": 0.0,
        "Inclination(deg)": 45.0,
        "Latitude(deg)": -16.390873437843215,
        "Longitude(deg)": 177.36284512930044,
        "Mean Anomaly(deg)": -23.31862326126572,
        "RAAN(deg)": 294.99122867933676,
        "Satellite Name": "Constellation 1 1318",
        "Satellite Number": 1318,
        "Semi-Major Axis(m)": 7083131.272910544,
        "Time(s)": 155
    },
    {
        "Altitude(m)": 706964.0864784571,
        "Argument of Periapsis(deg)": 0.009351888974283276,
        "Eccentricity": 0.0,
        "Inclination(deg)": 45.0,
        "Latitude(deg)": -16.349608990246864,
        "Longitude(deg)": 177.40522922596202,
        "Mean Anomaly(deg)": -23.25792212101579,
        "RAAN(deg)": 294.99117209017123,
        "Satellite Name": "Constellation 1 1318",
        "Satellite Number": 1318,
        "Semi-Major Axis(m)": 7083131.272910544,
        "Time(s)": 156
    },
    {
        "Altitude(m)": 706951.872340836,
        "Argument of Periapsis(deg)": 0.00941183698052868,
        "Eccentricity": 0.0,
        "Inclination(deg)": 45.0,
        "Latitude(deg)": -16.308334040099247,
        "Longitude(deg)": 177.4475940869343,
        "Mean Anomaly(deg)": -23.197220980765795,
        "RAAN(deg)": 294.99111550100565,
        "Satellite Name": "Constellation 1 1318",
        "Satellite Number": 1318,
        "Semi-Major Axis(m)": 7083131.272910544,
        "Time(s)": 157
    },
    {
        "Altitude(m)": 706939.6699976712,
        "Argument of Periapsis(deg)": 0.009471784986774088,
        "Eccentricity": 0.0,
        "Inclination(deg)": 45.0,
        "Latitude(deg)": -16.26704861919598,
        "Longitude(deg)": 177.48993959927694,
        "Mean Anomaly(deg)": -23.136519840516012,
        "RAAN(deg)": 294.99105891184,
        "Satellite Name": "Constellation 1 1318",
        "Satellite Number": 1318,
        "Semi-Major Axis(m)": 7083131.272910544,
        "Time(s)": 158
    },
    {
        "Altitude(m)": 706927.4794866644,
        "Argument of Periapsis(deg)": 0.009531732993019492,
        "Eccentricity": 0.0,
        "Inclination(deg)": 45.0,
        "Latitude(deg)": -16.225752759295155,
        "Longitude(deg)": 177.53226581811705,
        "Mean Anomaly(deg)": -23.075818700266076,
        "RAAN(deg)": 294.9910023226745,
        "Satellite Name": "Constellation 1 1318",
        "Satellite Number": 1318,
        "Semi-Major Axis(m)": 7083131.272910544,
        "Time(s)": 159
    },
    {
        "Altitude(m)": 706915.3008454422,
        "Argument of Periapsis(deg)": 0.009591680999264898,
        "Eccentricity": 0.0,
        "Inclination(deg)": 45.0,
        "Latitude(deg)": -16.184446492117814,
        "Longitude(deg)": 177.5745727985509,
        "Mean Anomaly(deg)": -23.015117560016137,
        "RAAN(deg)": 294.9909457335089,
        "Satellite Name": "Constellation 1 1318",
        "Satellite Number": 1318,
        "Semi-Major Axis(m)": 7083131.272910544,
        "Time(s)": 160
    },
    {
        "Altitude(m)": 706903.1341115868,
        "Argument of Periapsis(deg)": 0.009651629005510304,
        "Eccentricity": 0.0,
        "Inclination(deg)": 45.0,
        "Latitude(deg)": -16.143129849347698,
        "Longitude(deg)": 177.6168605956447,
        "Mean Anomaly(deg)": -22.95441641976625,
        "RAAN(deg)": 294.9908891443434,
        "Satellite Name": "Constellation 1 1318",
        "Satellite Number": 1318,
        "Semi-Major Axis(m)": 7083131.272910544,
        "Time(s)": 161
    },
    {
        "Altitude(m)": 706890.9793226123,
        "Argument of Periapsis(deg)": 0.00971157701175571,
        "Eccentricity": 0.0,
        "Inclination(deg)": 45.0,
        "Latitude(deg)": -16.101802862631295,
        "Longitude(deg)": 177.65912926443477,
        "Mean Anomaly(deg)": -22.893715279516417,
        "RAAN(deg)": 294.99083255517775,
        "Satellite Name": "Constellation 1 1318",
        "Satellite Number": 1318,
        "Semi-Major Axis(m)": 7083131.272910544,
        "Time(s)": 162
    },
    {
        "Altitude(m)": 706878.8365159652,
        "Argument of Periapsis(deg)": 0.009771525018001118,
        "Eccentricity": 0.0,
        "Inclination(deg)": 45.0,
        "Latitude(deg)": -16.060465563577683,
        "Longitude(deg)": 177.70137869183,
        "Mean Anomaly(deg)": -22.833014139266425,
        "RAAN(deg)": 294.99077596601217,
        "Satellite Name": "Constellation 1 1318",
        "Satellite Number": 1318,
        "Semi-Major Axis(m)": 7083131.272910544,
        "Time(s)": 163
    },
    {
        "Altitude(m)": 706866.7057290411,
        "Argument of Periapsis(deg)": 0.00983147302424652,
        "Eccentricity": 0.0,
        "Inclination(deg)": 45.0,
        "Latitude(deg)": -16.019117983760268,
        "Longitude(deg)": 177.74360926900033,
        "Mean Anomaly(deg)": -22.772312999016542,
        "RAAN(deg)": 294.99071937684664,
        "Satellite Name": "Constellation 1 1318",
        "Satellite Number": 1318,
        "Semi-Major Axis(m)": 7083131.272910544,
        "Time(s)": 164
    },
    {
        "Altitude(m)": 706854.5869991678,
        "Argument of Periapsis(deg)": 0.009891421030491928,
        "Eccentricity": 0.0,
        "Inclination(deg)": 45.0,
        "Latitude(deg)": -15.977760154714412,
        "Longitude(deg)": 177.7858208827944,
        "Mean Anomaly(deg)": -22.711611858766705,
        "RAAN(deg)": 294.99066278768106,
        "Satellite Name": "Constellation 1 1318",
        "Satellite Number": 1318,
        "Semi-Major Axis(m)": 7083131.272910544,
        "Time(s)": 165
    },
    {
        "Altitude(m)": 706842.4803636117,
        "Argument of Periapsis(deg)": 0.009951369036737332,
        "Eccentricity": 0.0,
        "Inclination(deg)": 45.0,
        "Latitude(deg)": -15.93639210793911,
        "Longitude(deg)": 177.8280135881279,
        "Mean Anomaly(deg)": -22.65091071851677,
        "RAAN(deg)": 294.99060619851554,
        "Satellite Name": "Constellation 1 1318",
        "Satellite Number": 1318,
        "Semi-Major Axis(m)": 7083131.272910544,
        "Time(s)": 166
    },
    {
        "Altitude(m)": 706830.3858595819,
        "Argument of Periapsis(deg)": 0.010011317042982738,
        "Eccentricity": 0.0,
        "Inclination(deg)": 45.0,
        "Latitude(deg)": -15.895013874896906,
        "Longitude(deg)": 177.87018743988645,
        "Mean Anomaly(deg)": -22.59020957826683,
        "RAAN(deg)": 294.9905496093499,
        "Satellite Name": "Constellation 1 1318",
        "Satellite Number": 1318,
        "Semi-Major Axis(m)": 7083131.272910544,
        "Time(s)": 167
    },
    {
        "Altitude(m)": 706818.3035242226,
        "Argument of Periapsis(deg)": 0.010071265049228144,
        "Eccentricity": 0.0,
        "Inclination(deg)": 45.0,
        "Latitude(deg)": -15.853625487013908,
        "Longitude(deg)": 177.91234249292512,
        "Mean Anomaly(deg)": -22.529508438016993,
        "RAAN(deg)": 294.9904930201843,
        "Satellite Name": "Constellation 1 1318",
        "Satellite Number": 1318,
        "Semi-Major Axis(m)": 7083131.272910544,
        "Time(s)": 168
    },
    {
        "Altitude(m)": 706806.2333946155,
        "Argument of Periapsis(deg)": 0.01013121305547355,
        "Eccentricity": 0.0,
        "Inclination(deg)": 45.0,
        "Latitude(deg)": -15.812226975679541,
        "Longitude(deg)": 177.95447880206964,
        "Mean Anomaly(deg)": -22.468807297767057,
        "RAAN(deg)": 294.9904364310188,
        "Satellite Name": "Constellation 1 1318",
        "Satellite Number": 1318,
        "Semi-Major Axis(m)": 7083131.272910544,
        "Time(s)": 169
    },
    {
        "Altitude(m)": 706794.1755077782,
        "Argument of Periapsis(deg)": 0.010191161061718957,
        "Eccentricity": 0.0,
        "Inclination(deg)": 45.0,
        "Latitude(deg)": -15.770818372247295,
        "Longitude(deg)": 177.9965964221152,
        "Mean Anomaly(deg)": -22.40810615751712,
        "RAAN(deg)": 294.9903798418532,
        "Satellite Name": "Constellation 1 1318",
        "Satellite Number": 1318,
        "Semi-Major Axis(m)": 7083131.272910544,
        "Time(s)": 170
    }
]